IRIDIUM 171             
1 43929U 19002H   25113.71299439  .00000129  00000+0  38827-4 0  9998
2 43929  86.4024 169.1650 0002518 100.5699 259.5781 14.34215820328838
IRIDIUM 170             
1 43930U 19002J   25112.58098900  .00001401  00000+0  21834-3 0  9997
2 43930  86.6146 169.4032 0002037  95.7930 264.3519 14.72239853337379
IRIDIUM 167             
1 43931U 19002K   25112.72989420  .00000428  00000+0  14586-3 0  9994
2 43931  86.4016 169.3344 0002253 105.9366 254.2078 14.34218245328699
IRIDIUM 181             
1 56726U 23068S   25112.76235506  .00000727  00000+0  20995-3 0  9993
2 56726  86.4520 232.3629 0002737 102.9325 257.2182 14.43305526101799
IRIDIUM 177             
1 56727U 23068T   25112.57018254  .00002321  00000+0  30188-3 0  9999
2 56727  86.2008 168.5172 0002499 101.1206 259.0296 14.80239393104143
IRIDIUM 174             
1 56728U 23068U   25112.57580646  .00001749  00000+0  27075-3 0  9993
2 56728  86.6143 169.5177 0001996  94.9208 265.2237 14.72688084104135
IRIDIUM 178             
1 56729U 23068V   25113.70849217  .00001658  00000+0  21489-3 0  9994
2 56729  86.6614 200.5513 0002493  90.5412 269.6095 14.80216762104310
IRIDIUM 179             
1 56730U 23068W   25113.70313225  .00002576  00000+0  33554-3 0  9997
2 56730  86.6837 208.2598 0002077 102.5758 257.5696 14.80236018104311
